SOYUZ-MS 28             
1 66664U 25275A   26014.88606923  .00006740  00000+0  12902-3 0  9997
2 66664  51.6333 338.3791 0007761  18.9639 341.1637 15.49293899547990
DUPLEX                  
1 66906U 98067XS  26015.09348833  .00017376  00000+0  28557-3 0  9992
2 66906  51.6320 336.7653 0002230  14.6895 345.4160 15.52479270  6796
1998-067XT              
1 66907U 98067XT  26015.17022813  .00050862  00000+0  70944-3 0  9993
2 66907  51.6303 335.7781 0003611  63.1799 296.9561 15.56379091  6817
1998-067XU              
1 66908U 98067XU  26015.10510943  .00047074  00000+0  65864-3 0  9999
2 66908  51.6308 336.0922 0003523  57.2563 302.8767 15.56329803  6809
SILVERSAT               
1 66909U 98067XV  26015.09647260  .00053982  00000+0  73355-3 0  9990
2 66909  51.6311 336.0350 0003798  68.7641 291.3756 15.57056664  6800
1998-067XW              
1 66910U 98067XW  26015.09804407  .00048252  00000+0  66638-3 0  9990
2 66910  51.6294 336.0437 0002548  42.8948 317.2242 15.56673593  6806
1998-067XX              
1 66911U 98067XX  26015.14679192  .00062934  00000+0  82834-3 0  9997
2 66911  51.6299 335.6198 0002627  63.4394 296.6867 15.57849929  6805
1998-067XY              
1 66912U 98067XY  26015.12498031  .00034766  00000+0  51475-3 0  9996
2 66912  51.6310 336.2253 0003471  44.3493 315.7776 15.54931849  6795
