CCSDS_OMM_VERS = 2.0
CREATION_DATE  = 
ORIGINATOR     = 

OBJECT_NAME    = SOYUZ-MS 28
OBJECT_ID      = 2025-275A
CENTER_NAME    = EARTH
REF_FRAME      = TEME
TIME_SYSTEM    = UTC
MEAN_ELEMENT_THEORY = SGP/SGP4

EPOCH          = 2026-01-14T21:15:56.381472
MEAN_MOTION    = 15.49293899
ECCENTRICITY   = .0007761
INCLINATION    = 51.6333
RA_OF_ASC_NODE = 338.3791
ARG_OF_PERICENTER = 18.9639
MEAN_ANOMALY   = 341.1637

EPHEMERIS_TYPE = 0
CLASSIFICATION_TYPE = U
NORAD_CAT_ID   = 66664
ELEMENT_SET_NO = 999
REV_AT_EPOCH   = 54799
BSTAR          = .12902E-3
MEAN_MOTION_DOT = .674E-4
MEAN_MOTION_DDOT = 0

CCSDS_OMM_VERS = 2.0
CREATION_DATE  = 
ORIGINATOR     = 

OBJECT_NAME    = DUPLEX
OBJECT_ID      = 1998-067XS
CENTER_NAME    = EARTH
REF_FRAME      = TEME
TIME_SYSTEM    = UTC
MEAN_ELEMENT_THEORY = SGP/SGP4

EPOCH          = 2026-01-15T02:14:37.391712
MEAN_MOTION    = 15.52479270
ECCENTRICITY   = .000223
INCLINATION    = 51.6320
RA_OF_ASC_NODE = 336.7653
ARG_OF_PERICENTER = 14.6895
MEAN_ANOMALY   = 345.4160

EPHEMERIS_TYPE = 0
CLASSIFICATION_TYPE = U
NORAD_CAT_ID   = 66906
ELEMENT_SET_NO = 999
REV_AT_EPOCH   = 679
BSTAR          = .28557E-3
MEAN_MOTION_DOT = .17376E-3
MEAN_MOTION_DDOT = 0

CCSDS_OMM_VERS = 2.0
CREATION_DATE  = 
ORIGINATOR     = 

OBJECT_NAME    = 1998-067XT
OBJECT_ID      = 1998-067XT
CENTER_NAME    = EARTH
REF_FRAME      = TEME
TIME_SYSTEM    = UTC
MEAN_ELEMENT_THEORY = SGP/SGP4

EPOCH          = 2026-01-15T04:05:07.710432
MEAN_MOTION    = 15.56379091
ECCENTRICITY   = .0003611
INCLINATION    = 51.6303
RA_OF_ASC_NODE = 335.7781
ARG_OF_PERICENTER = 63.1799
MEAN_ANOMALY   = 296.9561

EPHEMERIS_TYPE = 0
CLASSIFICATION_TYPE = U
NORAD_CAT_ID   = 66907
ELEMENT_SET_NO = 999
REV_AT_EPOCH   = 681
BSTAR          = .70944E-3
MEAN_MOTION_DOT = .50862E-3
MEAN_MOTION_DDOT = 0

CCSDS_OMM_VERS = 2.0
CREATION_DATE  = 
ORIGINATOR     = 

OBJECT_NAME    = 1998-067XU
OBJECT_ID      = 1998-067XU
CENTER_NAME    = EARTH
REF_FRAME      = TEME
TIME_SYSTEM    = UTC
MEAN_ELEMENT_THEORY = SGP/SGP4

EPOCH          = 2026-01-15T02:31:21.454752
MEAN_MOTION    = 15.56329803
ECCENTRICITY   = .0003523
INCLINATION    = 51.6308
RA_OF_ASC_NODE = 336.0922
ARG_OF_PERICENTER = 57.2563
MEAN_ANOMALY   = 302.8767

EPHEMERIS_TYPE = 0
CLASSIFICATION_TYPE = U
NORAD_CAT_ID   = 66908
ELEMENT_SET_NO = 999
REV_AT_EPOCH   = 680
BSTAR          = .65864E-3
MEAN_MOTION_DOT = .47074E-3
MEAN_MOTION_DDOT = 0

CCSDS_OMM_VERS = 2.0
CREATION_DATE  = 
ORIGINATOR     = 

OBJECT_NAME    = SILVERSAT
OBJECT_ID      = 1998-067XV
CENTER_NAME    = EARTH
REF_FRAME      = TEME
TIME_SYSTEM    = UTC
MEAN_ELEMENT_THEORY = SGP/SGP4

EPOCH          = 2026-01-15T02:18:55.232640
MEAN_MOTION    = 15.57056664
ECCENTRICITY   = .0003798
INCLINATION    = 51.6311
RA_OF_ASC_NODE = 336.0350
ARG_OF_PERICENTER = 68.7641
MEAN_ANOMALY   = 291.3756

EPHEMERIS_TYPE = 0
CLASSIFICATION_TYPE = U
NORAD_CAT_ID   = 66909
ELEMENT_SET_NO = 999
REV_AT_EPOCH   = 680
BSTAR          = .73355E-3
MEAN_MOTION_DOT = .53982E-3
MEAN_MOTION_DDOT = 0

CCSDS_OMM_VERS = 2.0
CREATION_DATE  = 
ORIGINATOR     = 

OBJECT_NAME    = 1998-067XW
OBJECT_ID      = 1998-067XW
CENTER_NAME    = EARTH
REF_FRAME      = TEME
TIME_SYSTEM    = UTC
MEAN_ELEMENT_THEORY = SGP/SGP4

EPOCH          = 2026-01-15T02:21:11.007648
MEAN_MOTION    = 15.56673593
ECCENTRICITY   = .0002548
INCLINATION    = 51.6294
RA_OF_ASC_NODE = 336.0437
ARG_OF_PERICENTER = 42.8948
MEAN_ANOMALY   = 317.2242

EPHEMERIS_TYPE = 0
CLASSIFICATION_TYPE = U
NORAD_CAT_ID   = 66910
ELEMENT_SET_NO = 999
REV_AT_EPOCH   = 680
BSTAR          = .66638E-3
MEAN_MOTION_DOT = .48252E-3
MEAN_MOTION_DDOT = 0

CCSDS_OMM_VERS = 2.0
CREATION_DATE  = 
ORIGINATOR     = 

OBJECT_NAME    = 1998-067XX
OBJECT_ID      = 1998-067XX
CENTER_NAME    = EARTH
REF_FRAME      = TEME
TIME_SYSTEM    = UTC
MEAN_ELEMENT_THEORY = SGP/SGP4

EPOCH          = 2026-01-15T03:31:22.821888
MEAN_MOTION    = 15.57849929
ECCENTRICITY   = .0002627
INCLINATION    = 51.6299
RA_OF_ASC_NODE = 335.6198
ARG_OF_PERICENTER = 63.4394
MEAN_ANOMALY   = 296.6867

EPHEMERIS_TYPE = 0
CLASSIFICATION_TYPE = U
NORAD_CAT_ID   = 66911
ELEMENT_SET_NO = 999
REV_AT_EPOCH   = 680
BSTAR          = .82834E-3
MEAN_MOTION_DOT = .62934E-3
MEAN_MOTION_DDOT = 0

CCSDS_OMM_VERS = 2.0
CREATION_DATE  = 
ORIGINATOR     = 

OBJECT_NAME    = 1998-067XY
OBJECT_ID      = 1998-067XY
CENTER_NAME    = EARTH
REF_FRAME      = TEME
TIME_SYSTEM    = UTC
MEAN_ELEMENT_THEORY = SGP/SGP4

EPOCH          = 2026-01-15T02:59:58.298784
MEAN_MOTION    = 15.54931849
ECCENTRICITY   = .0003471
INCLINATION    = 51.6310
RA_OF_ASC_NODE = 336.2253
ARG_OF_PERICENTER = 44.3493
MEAN_ANOMALY   = 315.7776

EPHEMERIS_TYPE = 0
CLASSIFICATION_TYPE = U
NORAD_CAT_ID   = 66912
ELEMENT_SET_NO = 999
REV_AT_EPOCH   = 679
BSTAR          = .51475E-3
MEAN_MOTION_DOT = .34766E-3
MEAN_MOTION_DDOT = 0

